# From MPEC 2021-BE3
P/2020 W1 (Rankin),e,10.7882,124.2708,265.0928,7.212577,0.0508825,0.26630197,51.5444,01/16.0/2023,2000,g 10.0,4.0
# From MPEC 2021-BE3
C/2020 W5 (Lemmon),h,11/30.0755/2020,88.5922,75.4765,24.4909,1.000708,3.364900,2000,15.0,4.0
# From MPEC 2022-YN2
P/2020 WJ5 (Lemmon),e,22.2942,177.8105,338.2096,6.016091,0.0667932,0.17128977,37.6560,01/16.0/2023,2000,g  8.5,4.0
# From MPEC 2021-P47
P/2020 X1 (ATLAS),e,31.6926,55.9955,323.3996,4.530050,0.1022232,0.36552833,92.9405,01/16.0/2023,2000,g 13.0,4.0
# From MPEC 2021-U31
C/2020 X2 (ATLAS),e,18.1855,105.4297,347.3586,16.44248,0.0147827,0.76724052,11.6934,01/16.0/2023,2000,g 10.6,4.0
# From MPEC 2021-S45
C/2020 X4 (Leonard),e,80.6056,161.8819,140.3045,40.80243,0.0037816,0.87202757,2.9910,01/16.0/2023,2000,g  9.0,4.0
# From MPEC 2023-A50
C/2020 Y2 (ATLAS),e,101.2981,26.5147,266.1175,1042,0.0000293,0.99699266,0.0000,06/17.7409/2022,2000,g  6.5,4.0
# From MPEC 2021-R75
C/2020 Y3 (ATLAS),e,83.1009,191.4426,341.9711,143.8890,0.0005710,0.98612097,0.0000,12/03.3475/2020,2000,g 13.5,4.0
# From MPEC 2023-A50
C/2021 A1 (Leonard),e,132.7002,255.8967,225.1035,61654,0.0000001,0.99999002,0.0000,01/03.2825/2022,2000,g  8.5,4.0
# From MPEC 2022-F14
C/2021 A2 (NEOWISE),e,106.9829,125.2106,338.7925,235.8734,0.0002721,0.99401330,0.0000,01/22.4822/2021,2000,g 13.5,4.0
# From MPEC 2022-ED3
C/2021 A4 (NEOWISE),e,111.5328,307.1132,204.7048,42.51532,0.0035554,0.97302027,0.0000,03/19.8149/2021,2000,g 16.0,4.0
# From MPEC 2021-BE3
P/2021 A5 (PANSTARRS),e,18.1848,328.7652,61.3109,3.047622,0.1852518,0.13990511,147.1834,01/16.0/2023,2000,g 15.0,4.0
# From MPEC 2022-YN2
C/2021 A6 (PANSTARRS),e,75.6074,164.0773,351.6495,9468,0.0000011,0.99916272,0.0000,05/03.4734/2021,2000,g  7.0,4.0
# From MPEC 2022-M88
C/2021 A7 (NEOWISE),e,78.1511,154.5103,356.0192,2624,0.0000073,0.99925047,0.0000,07/15.2204/2021,2000,g 10.0,4.0
# From MPEC 2023-A50
C/2021 A9 (PANSTARRS),h,12/01.5000/2023,158.0203,314.8421,211.4561,1.002594,7.760153,2000,6.0,4.0
# From MPEC 2021-N06
C/2021 A10 (NEOWISE),e,151.9153,188.6653,82.3519,88.28273,0.0011882,0.98570337,0.0000,03/15.1565/2021,2000,g 19.0,4.0
# From MPEC 2022-L66
C/2021 B2 (PANSTARRS),e,38.0862,120.5334,334.9698,357.6016,0.0001457,0.99297526,0.0000,05/04.3241/2021,2000,g 14.0,4.0
# From MPEC 2021-N06
C/2021 B3 (NEOWISE),e,119.4813,67.2854,293.5433,34.58005,0.0048469,0.93751780,3.2781,01/16.0/2023,2000,g 13.5,4.0
# From MPEC 2022-ED3
C/2021 C1 (Rankin),e,143.0455,186.8995,336.2561,14688,0.0000006,0.99976317,0.0000,12/06.9910/2020,2000,g 11.5,4.0
# From MPEC 2021-U31
P/2021 C2 (PANSTARRS),e,21.9336,66.4639,78.7345,9.534082,0.0334800,0.48729932,23.1464,01/16.0/2023,2000,g 12.0,4.0
# From MPEC 2021-N06
C/2021 C3 (Catalina),e,122.1644,181.9274,357.0899,62.23381,0.0020075,0.96344882,1.4108,01/16.0/2023,2000,g 14.0,4.0
# From MPEC 2022-M88
C/2021 C4 (ATLAS),h,01/17.0773/2021,132.8542,194.2782,320.2103,1.000022,4.502578,2000,9.0,4.0
# From MPEC 2022-YB4
C/2021 C5 (PANSTARRS),e,50.7815,323.6840,270.9221,2581,0.0000075,0.99874405,0.0000,02/11.0789/2023,2000,g  9.0,4.0
# From MPEC 2022-YB4
C/2021 C6 (Lemmon),h,11/13.2668/2021,164.6257,332.1569,203.5654,1.001105,3.271700,2000,12.0,4.0
# From MPEC 2022-F14
C/2021 D1 (SWAN),e,31.4372,311.2487,72.2695,99.77919,0.0009889,0.99095900,0.0000,02/27.7246/2021,2000,g 13.0,4.0
# From MPEC 2022-YN2
C/2021 D2 (ZTF),h,02/03.9835/2022,83.8205,305.6798,125.0273,1.001714,2.946258,2000,9.0,4.0
# From MPEC 2022-UY9
A/2021 E2,e,167.4883,190.8229,342.4062,228.1946,0.0002859,0.98998432,0.0000,12/10.4224/2020,2000,g 15.0,2.0
# From MPEC 2023-A50
C/2021 E3 (ZTF),h,06/11.9106/2022,112.5531,104.4732,228.8523,1.000909,1.777400,2000,8.5,4.0
# From MPEC 2022-UY9
A/2021 E4,e,116.3611,171.1723,48.2637,611.8233,0.0000651,0.99235741,0.0000,04/25.2032/2022,2000,g 13.5,2.0
# From MPEC 2022-QD9
C/2021 F1 (Lemmon-PANSTARRS),e,107.3263,203.4530,146.8191,229.7274,0.0002831,0.99566660,0.0000,04/06.8552/2022,2000,g 13.5,4.0
# From MPEC 2021-J72
C/2021 G1 (Leonard),e,131.5511,270.6996,107.4563,74.35952,0.0015371,0.95396484,0.8346,01/16.0/2023,2000,g 14.0,4.0
# From MPEC 2023-A50
C/2021 G2 (ATLAS),e,48.4733,221.0991,343.3393,5420,0.0000025,0.99908111,0.0000,09/09.7496/2024,2000,g  5.5,4.0
# From MPEC 2022-X67
C/2021 G3 (PANSTARRS),h,10/18.2588/2021,102.8767,147.4112,10.6092,1.000405,5.180417,2000,10.5,4.0
# From MPEC 2021-Y10
P/2021 HS (PANSTARRS),e,12.1652,262.3857,46.1098,4.194641,0.1147260,0.80993821,60.5412,01/16.0/2023,2000,g 22.0,4.0
# From MPEC 2022-C56
C/2021 J1 (Maury-Attard),e,92.7215,88.3517,147.3296,26.40354,0.0072646,0.93406485,5.0532,01/16.0/2023,2000,g 15.5,4.0
# From MPEC 2022-YB4
C/2021 J2 (PANSTARRS),e,156.2129,23.3345,172.0355,117.9099,0.0007698,0.96009115,0.3700,01/16.0/2023,2000,g 12.0,4.0
# From MPEC 2021-S45
P/2021 J3 (ATLAS),e,14.5352,111.1645,126.0417,8.935713,0.0368986,0.44943240,47.6538,01/16.0/2023,2000,g  7.0,4.0
# From MPEC 2022-O08
C/2021 K1 (ATLAS),e,16.2756,140.9038,184.2810,12.67853,0.0218324,0.80294846,13.5727,01/16.0/2023,2000,g 11.0,4.0
# From MPEC 2022-O01
C/2021 K2 (MASTER),h,09/09.4667/2021,100.8547,282.2496,343.3601,1.001088,5.467850,2000,8.0,4.0
# From MPEC 2022-L66
C/2021 K3 (Catalina),h,02/03.0929/2022,134.7797,114.4565,182.0445,1.003186,5.229931,2000,10.0,4.0
# From MPEC 2021-W31
P/2021 L2 (Leonard),e,21.0692,266.6572,51.5128,4.049313,0.1209573,0.52122703,65.3965,01/16.0/2023,2000,g 17.0,4.0
# From MPEC 2022-UE6
C/2021 L3 (Borisov),h,02/13.9400/2022,78.5788,344.9736,91.6055,1.002980,8.457885,2000,6.0,4.0
# From MPEC 2022-ST7
P/2021 L4 (PANSTARRS),e,16.9595,243.2096,234.4387,3.166098,0.1749515,0.11828494,215.5175,01/16.0/2023,2000,g 13.5,4.0
# From MPEC 2022-TA0
P/2021 N1 (ZTF),e,11.5000,301.1637,21.2193,2.977745,0.1918107,0.67650703,112.8851,01/16.0/2023,2000,g 19.0,4.0
# From MPEC 2023-A50
P/2021 N2 (Fuls),e,13.0616,221.7377,177.4201,6.936393,0.0539515,0.45253736,23.1059,01/16.0/2023,2000,g  9.5,4.0
# From MPEC 2022-YB4
C/2021 N3 (PANSTARRS),e,26.7405,337.4931,304.7632,154.3079,0.0005142,0.96295647,0.4521,01/16.0/2023,2000,g  8.5,4.0
# From MPEC 2022-A21
C/2021 O1 (Nishimura),e,27.5855,41.6171,74.4115,2331,0.0000088,0.99966278,0.0000,08/13.9731/2021,2000,g 10.5,4.0
# From MPEC 2022-L66
C/2021 O3 (PANSTARRS),h,04/21.0466/2022,56.7940,189.0189,299.9758,1.000074,0.287194,2000,10.5,4.0
# From MPEC 2022-CN4
C/2021 P1 (PANSTARRS),e,51.6365,359.6762,40.4512,2544,0.0000077,0.99828060,0.0000,06/02.3113/2022,2000,g 11.0,4.0
# From MPEC 2022-WQ9
C/2021 P2 (PANSTARRS),e,150.0634,32.0790,76.6856,2441,0.0000082,0.99792339,0.0000,01/22.6690/2023,2000,g  9.0,4.0
# From MPEC 2021-W31
P/2021 P3 (PANSTARRS),e,27.1616,358.2393,334.1011,4.412892,0.1063210,0.33922750,63.3383,01/16.0/2023,2000,g 14.0,4.0
# From MPEC 2023-A50
C/2021 P4 (ATLAS),e,56.3105,348.0934,175.8143,316.3413,0.0001752,0.99658472,0.0000,07/30.3625/2022,2000,g  9.5,4.0
# From MPEC 2022-WQ9
C/2021 Q3 (ATLAS),e,77.7673,307.9103,114.0958,75.52159,0.0015017,0.93108324,0.5329,01/16.0/2023,2000,g  8.0,4.0
# From MPEC 2022-WQ9
C/2021 Q4 (Fuls),h,06/10.2079/2023,71.4732,183.3335,146.9827,1.003222,7.564760,2000,6.0,4.0
# From MPEC 2022-C56
P/2021 Q5 (ATLAS),e,10.7370,239.7541,180.9157,3.286473,0.1654280,0.62447479,83.2895,01/16.0/2023,2000,g 15.0,4.0
# From MPEC 2022-Y15
C/2021 Q6 (PANSTARRS),e,161.8475,133.5342,140.9194,20202,0.0000003,0.99956887,0.0000,03/23.2836/2024,2000,g  6.0,4.0
# From MPEC 2023-A50
C/2021 QM45 (PANSTARRS),e,22.8223,354.5891,72.8139,356.4214,0.0001465,0.99221898,0.0000,08/13.4685/2022,2000,g 11.0,4.0
# From MPEC 2022-X67
P/2021 R1 (PANSTARRS),e,5.5192,143.3610,220.3618,8.353664,0.0408215,0.41510348,16.1144,01/16.0/2023,2000,g 11.0,4.0
# From MPEC 2022-X67
C/2021 R2 (PANSTARRS),e,134.4811,16.2949,32.4226,2437,0.0000082,0.99699857,0.0000,12/26.6151/2021,2000,g  7.5,4.0
# From MPEC 2021-W31
P/2021 R3 (PANSTARRS),e,19.9278,304.2052,2.8076,3.773123,0.1344784,0.33117698,80.6629,01/16.0/2023,2000,g 16.0,4.0
# From MPEC 2021-W31
P/2021 R4 (Wierzchos),e,21.0377,321.2603,56.6702,5.620710,0.0739635,0.58602413,33.9467,01/16.0/2023,2000,g 16.0,4.0
# From MPEC 2022-Y15
P/2021 R5 (Rankin),e,7.8547,219.9586,167.4172,4.793567,0.0939109,0.30673624,34.6195,01/16.0/2023,2000,g 12.0,4.0
# From MPEC 2021-W31
P/2021 R6 (Groeller),e,34.9266,176.1149,220.7742,6.278185,0.0626546,0.59337540,27.6284,01/16.0/2023,2000,g 14.5,4.0
# From MPEC 2022-X67
C/2021 R7 (PANSTARRS),e,158.8456,170.1427,140.2688,869.8134,0.0000384,0.99350384,0.0000,04/16.5114/2021,2000,g 10.5,4.0
# From MPEC 2021-Y10
P/2021 R8 (Sheppard),e,2.2034,167.0270,190.8096,3.017472,0.1880353,0.29354042,87.5309,01/16.0/2023,2000,g 18.5,4.0
# From MPEC 2023-A50
C/2021 S1 (ATLAS),h,03/01.0215/2022,52.0772,299.8777,148.1901,1.001768,6.119263,2000,7.0,4.0
# From MPEC 2023-A50
C/2021 S3 (PANSTARRS),h,02/14.7418/2024,58.5336,215.6232,6.8776,1.000001,1.319821,2000,5.5,4.0
# From MPEC 2023-A50
C/2021 S4 (Tsuchinshan),e,17.4801,5.4969,72.7829,164.7734,0.0004660,0.95939324,359.8367,01/16.0/2023,2000,g  6.5,4.0
# From MPEC 2022-OB6
C/2021 T1 (Lemmon),e,140.3527,56.8320,51.5295,1277,0.0000216,0.99760460,0.0000,10/14.0777/2021,2000,g 12.5,4.0
# From MPEC 2023-A50
C/2021 T2 (Fuls),h,06/07.9012/2022,117.5332,223.2318,263.5976,1.000298,1.247750,2000,12.0,4.0
# From MPEC 2023-A50
C/2021 T4 (Lemmon),h,07/31.5036/2023,160.7737,257.8596,329.7883,1.000171,1.483238,2000,7.5,4.0
# From MPEC 2022-ED3
P/2021 U1 (Wierzchos),e,30.5553,246.7796,145.0941,8.520063,0.0396314,0.71293666,18.7027,01/16.0/2023,2000,g 14.5,4.0
# From MPEC 2022-L66
P/2021 U3 (Attard-Maury),e,69.9584,75.1015,335.2311,4.192377,0.1148189,0.54986331,51.4532,01/16.0/2023,2000,g 15.5,4.0
# From MPEC 2021-W31
C/2021 U4 (Leonard),e,152.8795,241.8107,237.2897,44.72852,0.0032948,0.96002995,1.2852,01/16.0/2023,2000,g 17.0,4.0
# From MPEC 2022-WQ9
C/2021 U5 (Catalina),e,39.0505,182.7549,321.4505,216.8418,0.0003087,0.98910371,0.0000,01/26.5785/2022,2000,g 13.0,4.0
# From MPEC 2022-CN4
